OBJECT_NAME,OBJECT_ID,EPOCH,MEAN_MOTION,ECCENTRICITY,INCLINATION,RA_OF_ASC_NODE,ARG_OF_PERICENTER,MEAN_ANOMALY,EPHEMERIS_TYPE,CLASSIFICATION_TYPE,NORAD_CAT_ID,ELEMENT_SET_NO,REV_AT_EPOCH,BSTAR,MEAN_MOTION_DOT,MEAN_MOTION_DDOT
SWARM A,2013-067B,2026-06-09T19:10:58.457280,15.50805500,.00029897,87.3330,58.9854,92.8519,267.3084,0,U,39452,999,70510,.17951019E-3,.10386E-3,0
SWARM C,2013-067C,2026-06-09T19:10:48.464256,15.50807729,.00029665,87.3330,57.5667,93.1332,267.0268,0,U,39453,999,70506,.1758916E-3,.10178E-3,0
BRITE-CA1 (TORONTO),2014-033L,2026-06-09T15:09:49.360320,14.72666383,.00774112,97.9730,289.6994,301.6359,57.7312,0,U,40020,999,64110,.10504619E-3,.647E-5,0
OCO 2,2014-035A,2026-06-09T19:23:15.991872,14.57105201,.00014843,98.2017,102.2134,86.6770,273.4599,0,U,40059,999,63497,.88175276E-4,.352E-5,0
BRITE-PL2 (HEWELIUSZ),2014-049B,2026-06-09T12:57:43.756992,14.94569959,.00151668,97.9090,272.4818,131.1884,229.0646,0,U,40119,999,64030,.18026139E-3,.1894E-4,0
MMS 1,2015-011A,2026-06-10T00:00:04.000320,0.28340368,.83240568,72.0788,348.8858,167.3362,285.1258,0,U,40482,999,139,0,.1E-7,0
MMS 2,2015-011B,2026-06-10T00:00:04.000320,0.28340374,.83248409,72.0789,348.8880,167.3419,285.1142,0,U,40483,999,139,0,.1E-7,0
MMS 3,2015-011C,2026-06-10T00:00:04.000320,0.28342526,.83239825,72.0810,348.8921,167.3380,285.1043,0,U,40484,999,139,0,.1E-7,0
MMS 4,2015-011D,2026-06-10T00:00:04.000320,0.28340322,.83236323,72.0782,348.8883,167.3442,285.0988,0,U,40485,999,139,0,.1E-7,0
ASTROSAT,2015-052A,2026-06-09T18:12:25.199136,14.82495179,.00085406,5.9953,208.8328,288.1197,71.8001,0,U,40930,999,57872,.10301013E-3,.1518E-4,0
DAMPE,2015-078A,2026-06-09T21:54:01.198368,15.30767057,.00137733,97.4564,166.3437,99.7919,260.4877,0,U,41173,999,58343,.45070916E-4,.1265E-4,0
PISAT,2016-059B,2026-06-09T18:53:59.605152,14.68970869,.00278542,97.8178,161.5583,227.1811,132.7054,0,U,41784,999,51865,.15086557E-3,.841E-5,0
HXMT (HUIYAN),2017-034A,2026-06-09T21:33:59.139360,15.18428208,.00301864,43.0133,223.6251,99.0953,261.3313,0,U,42758,999,49655,.20865955E-3,.418E-4,0
FLYING LAPTOP,2017-042G,2026-06-09T22:04:24.138048,15.01100148,.00192219,97.4660,316.7345,145.4184,214.8295,0,U,42831,999,48536,.32210797E-3,.4081E-4,0
ZHANGHENG 1-01 (CSES-1),2018-015C,2026-06-09T23:12:29.009088,15.20719457,.00171174,97.6865,326.4823,293.6002,66.3435,0,U,43194,999,46354,.28380874E-3,.6193E-4,0
SALSAT,2020-068K,2026-06-09T18:05:43.961856,15.29692121,.00087133,97.8854,163.3666,338.5586,21.5287,0,U,46495,999,31422,.26681047E-3,.7599E-4,0
IXPE,2021-121A,2026-06-09T22:00:01.999584,15.10183945,.00069354,0.2309,12.0848,329.8782,307.0659,0,U,49954,999,537,.57102073E-3,.1054E-3,0
SMILE,2026-109A,2026-05-24T15:40:35.120928,14.57062785,.00091232,70.0007,229.2745,259.5159,100.4951,0,U,69123,999,80,-.42378883E-3,-.1976E-4,0
