SWARM A                 
1 39452U 13067B   26160.79928770  .00010386  00000+0  17951-3 0  9997
2 39452  87.3330  58.9854 0002989  92.8519 267.3084 15.50805500705102
SWARM C                 
1 39453U 13067C   26160.79917204  .00010178  00000+0  17589-3 0  9994
2 39453  87.3330  57.5667 0002966  93.1332 267.0268 15.50807729705063
BRITE-CA1 (TORONTO)     
1 40020U 14033L   26160.63182130  .00000647  00000+0  10505-3 0  9996
2 40020  97.9730 289.6994 0077411 301.6359  57.7312 14.72666383641100
OCO 2                   
1 40059U 14035A   26160.80782398  .00000352  00000+0  88175-4 0  9993
2 40059  98.2017 102.2134 0001484  86.6770 273.4599 14.57105201634975
BRITE-PL2 (HEWELIUSZ)   
1 40119U 14049B   26160.54008978  .00001894  00000+0  18026-3 0  9990
2 40119  97.9090 272.4818 0015166 131.1884 229.0646 14.94569959640301
MMS 1                   
1 40482U 15011A   26161.00004630  .00000001  00000+0  00000+0 0  9994
2 40482  72.0788 348.8858 8324056 167.3362 285.1258  0.28340368  1390
MMS 2                   
1 40483U 15011B   26161.00004630  .00000001  00000+0  00000+0 0  9995
2 40483  72.0789 348.8880 8324840 167.3419 285.1142  0.28340374  1390
MMS 3                   
1 40484U 15011C   26161.00004630  .00000001  00000+0  00000+0 0  9996
2 40484  72.0810 348.8921 8323982 167.3380 285.1043  0.28342526  1396
MMS 4                   
1 40485U 15011D   26161.00004630  .00000001  00000+0  00000+0 0  9997
2 40485  72.0782 348.8883 8323632 167.3442 285.0988  0.28340322  1392
ASTROSAT                
1 40930U 15052A   26160.75862499  .00001518  00000+0  10301-3 0  9996
2 40930   5.9953 208.8328 0008540 288.1197  71.8001 14.82495179578729
DAMPE                   
1 41173U 15078A   26160.91251387  .00001265  00000+0  45071-4 0  9992
2 41173  97.4564 166.3437 0013773  99.7919 260.4877 15.30767057583436
PISAT                   
1 41784U 16059B   26160.78749543  .00000841  00000+0  15087-3 0  9993
2 41784  97.8178 161.5583 0027854 227.1811 132.7054 14.68970869518658
HXMT (HUIYAN)           
1 42758U 17034A   26160.89860115  .00004180  00000+0  20866-3 0  9991
2 42758  43.0133 223.6251 0030186  99.0953 261.3313 15.18428208496553
FLYING LAPTOP           
1 42831U 17042G   26160.91972382  .00004081  00000+0  32211-3 0  9992
2 42831  97.4660 316.7345 0019221 145.4184 214.8295 15.01100148485361
ZHANGHENG 1-01 (CSES-1) 
1 43194U 18015C   26160.96700242  .00006193  00000+0  28381-3 0  9994
2 43194  97.6865 326.4823 0017117 293.6002  66.3435 15.20719457463541
SALSAT                  
1 46495U 20068K   26160.75398104  .00007599  00000+0  26681-3 0  9991
2 46495  97.8854 163.3666 0008713 338.5586  21.5287 15.29692121314224
IXPE                    
1 49954U 21121A   26160.91668981  .00010540  00000+0  57102-3 0  9998
2 49954   0.2309  12.0848 0006935 329.8782 307.0659 15.10183945  5374
SMILE                   
1 69123U 26109A   26144.65318427 -.00001976  00000+0 -42379-3 0  9994
2 69123  70.0007 229.2745 0009123 259.5159 100.4951 14.57062785   802
